LEMUR-2-MYRA            
1 66787U 25276EC  26200.13733705  .00003172  00000+0  25471-3 0  9999
2 66787  97.5220 269.9778 0018616  42.2452 318.0202 15.00614845 35008
LEMUR-2 FIKRETDENGIZ    
1 67363U 26004A   26199.99940549  .00002165  00000+0  23850-3 0  9997
2 67363  97.8032 198.0748 0009916  45.1686 315.0335 14.88531966 28010
TWILIGHT-1 OBJECT B     
1 67364U 26004B   26200.24017006  .00000847  00000+0  98627-4 0  9992
2 67364  97.8077 198.3105 0009439  34.1425 326.0396 14.87800972 28057
LEMUR-2-MARIO-SOUSA     
1 67365U 26004C   26199.97872622  .00001910  00000+0  21004-3 0  9999
2 67365  97.8005 198.0493 0009565  46.6501 313.5512 14.88744542 28028
LEMUR-2-SONNENBLUME     
1 67367U 26004E   26200.25118343  .00001294  00000+0  14520-3 0  9998
2 67367  97.8003 198.2885 0009176  46.8859 313.3124 14.88464736 28066
LEMUR-2-WOBLER          
1 67368U 26004F   26200.23979847  .00001550  00000+0  17173-3 0  9993
2 67368  97.8056 198.4326 0009200  38.3918 321.7952 14.88713707 28064
LEMUR-2-GRAM-E-SUE      
1 67370U 26004H   26199.96336007  .00001165  00000+0  13088-3 0  9991
2 67370  97.7988 198.0217 0008370  50.7985 309.3974 14.88598817 28029
LEMUR-2-KATIE           
1 67387U 26004AA  26200.25183146  .00002036  00000+0  21541-3 0  9999
2 67387  97.8049 198.8709 0003115  23.8338 336.3023 14.90269795 28089
LEMUR-2-HCS-BAZUS       
1 67388U 26004AB  26200.25016086  .00001783  00000+0  18935-3 0  9999
2 67388  97.8039 198.8470 0002641  25.2355 334.8991 14.90278599 28081
